OBJECT_NAME,OBJECT_ID,EPOCH,MEAN_MOTION,ECCENTRICITY,INCLINATION,RA_OF_ASC_NODE,ARG_OF_PERICENTER,MEAN_ANOMALY,EPHEMERIS_TYPE,CLASSIFICATION_TYPE,NORAD_CAT_ID,ELEMENT_SET_NO,REV_AT_EPOCH,BSTAR,MEAN_MOTION_DOT,MEAN_MOTION_DDOT
UMBRA-10,2024-149CH,2026-07-19T05:22:37.596864,15.18918547,.00019364,97.6968,288.0294,159.0759,201.0554,0,U,60547,999,10559,.36720996E-3,.7597E-4,0
ICEYE-X33,2024-149CJ,2026-07-19T05:40:43.241376,15.00905522,.00018526,97.7374,279.2190,70.3156,289.8267,0,U,60548,999,10501,.20160854E-3,.2507E-4,0
ICEYE-X40,2024-149CK,2026-07-19T03:57:07.065504,14.98089888,.00037067,97.6807,276.1467,353.5814,6.5360,0,U,60549,999,10486,.1329576E-3,.1515E-4,0
SATELIOT_1,2024-149CL,2026-07-19T05:16:57.048672,14.98172993,.00052162,97.6734,275.5846,340.8924,19.2102,0,U,60550,999,10486,.11752396E-3,.1336E-4,0
BRO-14,2024-149CM,2026-07-19T03:54:00.254016,14.96243700,.00064316,97.6864,275.3652,6.2131,353.9169,0,U,60551,999,10477,.92859567E-4,.991E-5,0
SATELIOT_3,2024-149CN,2026-07-19T11:06:58.936032,14.98168032,.00046263,97.6809,276.6467,346.5902,13.5196,0,U,60552,999,10491,.49179587E-4,.525E-5,0
BRO-15,2024-149CP,2026-07-19T14:43:15.040992,14.96225479,.00072423,97.6789,275.3794,350.2515,9.8564,0,U,60553,999,10485,.57763248E-4,.595E-5,0
UM5-RIBAT,2024-149CQ,2026-07-19T04:49:03.209376,15.01227533,.00004095,97.6598,277.5660,293.5293,66.5888,0,U,60554,999,10499,.86585536E-4,.1052E-4,0
UM5-EOSAT,2024-149CR,2026-07-19T11:45:22.594176,15.01744279,.00089446,97.6778,278.8661,24.3560,335.8086,0,U,60555,999,10506,.13271771E-3,.1668E-4,0
LASARSAT,2024-247Q,2026-07-18T22:23:23.875872,15.48202624,.00079764,44.9739,83.5637,189.9528,170.1206,0,U,62391,999,8823,.39367272E-3,.20905E-3,0
CROCUBE,2024-247T,2026-07-18T22:53:00.364416,15.50381393,.00081477,44.9710,80.2241,196.1185,163.9448,0,U,62394,999,8827,.43401259E-3,.24965E-3,0
TEVEL2-4,2025-052D,2026-07-19T15:25:12.513216,15.35661719,.00031699,97.3853,97.1061,43.0133,317.1358,0,U,63213,999,7509,.29789287E-3,.10253E-3,0
TEVEL2-5,2025-052E,2026-07-19T14:26:22.858944,15.35471509,.0003191,97.3852,97.0033,45.3967,314.7537,0,U,63214,999,7508,.30683538E-3,.10499E-3,0
TEVEL2-6,2025-052F,2026-07-19T03:48:17.519040,15.35425857,.00033179,97.3857,96.5439,47.9788,312.1737,0,U,63215,999,7501,.27765753E-3,.9478E-4,0
TEVEL2-1,2025-052H,2026-07-19T11:02:13.371936,15.34859218,.00039185,97.3828,96.4310,51.1832,308.9761,0,U,63217,999,7504,.287441E-3,.964E-4,0
TEVEL2-3,2025-052J,2026-07-19T06:11:04.053120,15.34918835,.00037425,97.3840,96.2545,52.6845,307.4739,0,U,63218,999,7501,.28484641E-3,.957E-4,0
TEVEL2-2,2025-052K,2026-07-19T12:36:14.499648,15.34871976,.00039721,97.3830,96.4993,51.2578,308.9020,0,U,63219,999,7505,.29131232E-3,.9775E-4,0
TEVEL2-9,2025-052AD,2026-07-19T05:15:06.905952,15.32806992,.00073214,97.3893,95.4966,45.4826,314.7014,0,U,63237,999,7493,.27748568E-3,.8721E-4,0
TEVEL2-7,2025-052AE,2026-07-19T11:05:19.326336,15.32492190,.00074123,97.3895,95.6412,45.1189,315.0654,0,U,63238,999,7496,.27686013E-3,.8616E-4,0
TEVEL2-8,2025-052AF,2026-07-19T05:01:32.827872,15.32473641,.00074778,97.3897,95.3655,46.6510,313.5354,0,U,63239,999,7492,.27077917E-3,.842E-4,0
FORESAIL-1 PRIME,2025-276DS,2026-07-19T03:31:28.170912,15.18956984,.00025565,97.4184,272.8360,36.0771,324.0635,0,U,66778,999,3525,.11612548E-3,.2359E-4,0
